NORAD_CAT_ID,OBJECT_NAME,OBJECT_TYPE,EPOCH,MEAN_MOTION,ECCENTRICITY,INCLINATION,RA_OF_ASC_NODE,ARG_OF_PERICENTER,MEAN_ANOMALY,BSTAR,MEAN_MOTION_DOT,MEAN_MOTION_DDOT,TLE_LINE0,TLE_LINE1,TLE_LINE2,SEMIMAJOR_AXIS,PERIOD,APOGEE,PERIGEE,DECAYED
49132.0,STARLINK-3090,PAYLOAD,2022-02-21 22:00:00,14.98307707,0.0003307,70.0005,57.9178,282.2338,10.5547,0.0048936,0.00058756,0.0,0 STARLINK-3090,1 49132U 21082C   22052.91667824  .00058756  00000-0  48936-2 0  9999,2 49132  70.0005  57.9178 0003307 282.2338  10.5547 14.98307707  3574,6950.262,96.108,574.425,569.828,0.0
49132.0,STARLINK-3090,PAYLOAD,2022-02-22 06:00:00,14.98341761,0.0003405,70.0009,57.0772,285.718,4.5566,-0.00097892,-0.00011758,0.0,0 STARLINK-3090,1 49132U 21082C   22053.25001157 -.00011758  00000-0 -97892-3 0  9997,2 49132  70.0009  57.0772 0003405 285.7180   4.5566 14.98341761 24813,6950.156999999997,96.106,574.388,569.655,0.0
49132.0,STARLINK-3090,PAYLOAD,2022-02-22 14:00:01,14.98369064,0.0003388,70.0006,56.2367,287.5214,0.2391,-0.0074801999999999,-0.00088323,0.0,0 STARLINK-3090,1 49132U 21082C   22053.58334491 -.00088323  00000-0 -74802-2 0  9990,2 49132  70.0006  56.2367 0003388 287.5214   0.2391 14.98369064  3563,6950.071999999999,96.104,574.2919999999998,569.582,0.0
49132.0,STARLINK-3090,PAYLOAD,2022-02-22 22:00:00,14.98290028,0.0003243,70.0008,55.3963,282.1617,3.0964,0.0045984,0.00055152,0.0,0 STARLINK-3090,1 49132U 21082C   22053.91667824  .00055152  00000-0  45984-2 0  9997,2 49132  70.0008  55.3963 0003243 282.1617   3.0964 14.98290028  3565,6950.316999999999,96.11,574.435,569.928,0.0
49132.0,STARLINK-3090,PAYLOAD,2022-02-23 14:00:01,14.98333918,0.0003156,69.9998,53.7267,281.6939,358.4431,-0.00057243,-6.917e-05,0.0,0 STARLINK-3090,1 49132U 21082C   22054.58334491 -.00006917  00000-0 -57243-3 0  9991,2 49132  69.9998  53.7267 0003156 281.6939 358.4431 14.98333918 25019,6950.181,96.107,574.239,569.852,0.0
49132.0,STARLINK-3090,PAYLOAD,2022-02-23 22:00:00,14.98297748,0.0003311,70.001,52.8749,282.0147,355.646,0.0041693999999999,0.00049971,0.0,0 STARLINK-3090,1 49132U 21082C   22054.91667824  .00049971  00000-0  41694-2 0  9994,2 49132  70.0010  52.8749 0003311 282.0147 355.6460 14.98297748  3579,6950.293000000002,96.109,574.4590000000002,569.856,0.0
49132.0,STARLINK-3090,PAYLOAD,2022-02-24 14:00:01,14.98363256,0.0003343,70.0008,51.1939,286.7153,345.9084,-0.0039953,-0.00047485,0.0,0 STARLINK-3090,1 49132U 21082C   22055.58334491 -.00047485  00000-0 -39953-2 0  9994,2 49132  70.0008  51.1939 0003343 286.7153 345.9084 14.98363256  3574,6950.09,96.105,574.278,569.632,0.0
49132.0,STARLINK-3090,PAYLOAD,2022-02-24 22:00:00,14.98329422,0.0003251,70.0011,50.3535,281.7099,348.4156,0.0025479,0.0003044,0.0,0 STARLINK-3090,1 49132U 21082C   22055.91667824  .00030440  00000-0  25479-2 0  9999,2 49132  70.0011  50.3535 0003251 281.7099 348.4156 14.98329422  3567,6950.195,96.107,574.319,569.8,0.0
49132.0,STARLINK-3090,PAYLOAD,2022-02-25 06:00:00,14.98326749,0.0003275,70.001,49.51300000000001,286.8952,340.736,-0.0018206,-0.00021747,0.0,0 STARLINK-3090,1 49132U 21082C   22056.25001157 -.00021747  00000-0 -18206-2 0  9990,2 49132  70.0010  49.5130 0003275 286.8952 340.7360 14.98326749 25269,6950.203,96.107,574.344,569.7919999999998,0.0
49132.0,STARLINK-3090,PAYLOAD,2022-02-25 14:00:01,14.9834107,0.0003195,70.0007,48.6726,288.0181,337.0767,-0.0042324,-0.00050248,0.0,0 STARLINK-3090,1 49132U 21082C   22056.58334491 -.00050248  00000-0 -42324-2 0  9992,2 49132  70.0007  48.6726 0003195 288.0181 337.0767 14.98341070  3579,6950.159000000002,96.106,574.244,569.803,0.0
49132.0,STARLINK-3090,PAYLOAD,2022-02-25 22:00:00,14.98305455,0.0003123,70.0008,47.8322,282.97,339.6023,0.003382,0.00040469,0.0,0 STARLINK-3090,1 49132U 21082C   22056.91667824  .00040469  00000-0  33820-2 0  9991,2 49132  70.0008  47.8322 0003123 282.9700 339.6023 14.98305455 25365,6950.269,96.109,574.304,569.9630000000002,0.0
49132.0,STARLINK-3090,PAYLOAD,2022-02-26 14:00:01,14.98348947,0.0003159,70.0004,46.1511,288.868,328.6477,-0.0043583999999999,-0.00051741,0.0,0 STARLINK-3090,1 49132U 21082C   22057.58334491 -.00051741  00000-0 -43584-2 0  9991,2 49132  70.0004  46.1511 0003159 288.8680 328.6477 14.98348947 25469,6950.134,96.106,574.195,569.804,0.0
49132.0,STARLINK-3090,PAYLOAD,2022-02-26 22:00:00,14.98330474,0.0003168,70.0001,45.322,287.7413,327.2405,-8.3919e-05,-1.094e-05,0.0,0 STARLINK-3090,1 49132U 21082C   22057.91667824 -.00001094  00000-0 -83919-4 0  9991,2 49132  70.0001  45.3220 0003168 287.7413 327.2405 14.98330474  3587,6950.191,96.107,574.258,569.855,0.0
49132.0,STARLINK-3090,PAYLOAD,2022-02-27 06:00:00,14.98318988,0.0003184,70.0007,44.4699,289.1655,323.3171,0.00077037,9.108e-05,0.0,0 STARLINK-3090,1 49132U 21082C   22058.25001157  .00009108  00000-0  77037-3 0  9995,2 49132  70.0007  44.4699 0003184 289.1655 323.3171 14.98318988 25560,6950.227,96.108,574.305,569.879,0.0
49132.0,STARLINK-3090,PAYLOAD,2022-02-27 14:00:01,14.98353396,0.0003143999999999,70.0003,43.6293,288.934,321.0217,-0.0044092,-0.00052344,0.0,0 STARLINK-3090,1 49132U 21082C   22058.58334491 -.00052344  00000-0 -44092-2 0  9997,2 49132  70.0003  43.6293 0003144 288.9340 321.0217 14.98353396  3576,6950.121,96.105,574.1709999999998,569.8,0.0
49132.0,STARLINK-3090,PAYLOAD,2022-02-27 22:00:00,14.9832358,0.0003063,70.0005,42.7887,283.4395,324.005,0.0025699,0.000307,0.0,0 STARLINK-3090,1 49132U 21082C   22058.91667824  .00030700  00000-0  25699-2 0  9995,2 49132  70.0005  42.7887 0003063 283.4395 324.0050 14.98323580  3588,6950.2130000000025,96.107,574.207,569.9490000000002,0.0
49132.0,STARLINK-3090,PAYLOAD,2022-02-28 14:00:01,14.98359572,0.0003177,70.0003,41.1073,288.198,314.2264,-0.0043913,-0.00052142,0.0,0 STARLINK-3090,1 49132U 21082C   22059.58334491 -.00052142  00000-0 -43913-2 0  9995,2 49132  70.0003  41.1073 0003177 288.1980 314.2264 14.98359572 25766,6950.101,96.105,574.174,569.758,0.0
49132.0,STARLINK-3090,PAYLOAD,2022-02-28 22:00:00,14.98335704,0.00031,70.0007,40.2668,282.8295,317.0932,0.0022393,0.00026732,0.0,0 STARLINK-3090,1 49132U 21082C   22059.91667824  .00026732  00000-0  22393-2 0  9994,2 49132  70.0007  40.2668 0003100 282.8295 317.0932 14.98335704 25816,6950.175,96.107,574.195,569.886,0.0
49132.0,STARLINK-3090,PAYLOAD,2022-03-01 14:00:01,14.98373506,0.0003285,70.0007,38.5854,286.968,307.9574,-0.0076114999999999,-0.00089862,0.0,0 STARLINK-3090,1 49132U 21082C   22060.58334491 -.00089862  00000-0 -76115-2 0  9996,2 49132  70.0007  38.5854 0003285 286.9680 307.9574 14.98373506 25913,6950.058000000001,96.104,574.206,569.64,0.0
49132.0,STARLINK-3090,PAYLOAD,2022-03-01 22:00:01,14.98322315,0.000327,70.0011,37.7449,282.0888,310.3926,0.001792,0.0002135,0.0,0 STARLINK-3090,1 49132U 21082C   22060.91668981  .00021350  00000-0  17920-2 0  9992,2 49132  70.0011  37.7449 0003270 282.0888 310.3926 14.98322315  3580,6950.217,96.107,574.354,569.809,0.0
49132.0,STARLINK-3090,PAYLOAD,2022-03-02 00:00:00,14.98345981,0.0003319,70.0012,37.5348,282.7416,39.0403,-0.0019191,-0.00022927,0.0,0 STARLINK-3090,1 49132U 21082C   22061.00001157 -.00022927  00000-0 -19191-2 0  9994,2 49132  70.0012  37.5348 0003319 282.7416  39.0403 14.98345981 25971,6950.143,96.106,574.315,569.702,0.0
49132.0,STARLINK-3090,PAYLOAD,2022-03-02 14:00:01,14.98348975,0.0003343,70.0012,36.0638,286.6947,300.6837,-0.0037945,-0.00045102,0.0,0 STARLINK-3090,1 49132U 21082C   22061.58334491 -.00045102  00000-0 -37945-2 0  9994,2 49132  70.0012  36.0638 0003343 286.6947 300.6837 14.98348975  3550,6950.134,96.106,574.323,569.6759999999998,0.0
49132.0,STARLINK-3090,PAYLOAD,2022-03-02 22:00:00,14.98335221,0.0003291,70.0016,35.2234,282.3727,302.4869,0.0011446,0.00013593,0.0,0 STARLINK-3090,1 49132U 21082C   22061.91667824  .00013593  00000-0  11446-2 0  9995,2 49132  70.0016  35.2234 0003291 282.3727 302.4869 14.98335221 26110,6950.177,96.107,574.3290000000002,569.754,0.0
49132.0,STARLINK-3090,PAYLOAD,2022-03-03 14:00:01,14.98361297,0.0003367,70.0016,33.5425,286.7537,293.0882,-0.0073345,-0.00086608,0.0,0 STARLINK-3090,1 49132U 21082C   22062.58334491 -.00086608  00000-0 -73345-2 0  9995,2 49132  70.0016  33.5425 0003367 286.7537 293.0882 14.98361297 26217,6950.096,96.105,574.3009999999998,569.621,0.0
49132.0,STARLINK-3090,PAYLOAD,2022-03-03 22:00:00,14.98319085,0.0003359,70.002,32.7023,282.6691,294.6502,0.00058806,6.929e-05,0.0,0 STARLINK-3090,1 49132U 21082C   22062.91667824  .00006929  00000-0  58806-3 0  9993,2 49132  70.0020  32.7023 0003359 282.6691 294.6502 14.98319085 26263,6950.227,96.108,574.4259999999998,569.757,0.0
49132.0,STARLINK-3090,PAYLOAD,2022-03-04 14:00:01,14.98335739,0.0003362,70.0018,31.0214,287.1123,285.2099,-0.0033846,-0.00040254,0.0,0 STARLINK-3090,1 49132U 21082C   22063.58335648 -.00040254  00000-0 -33846-2 0  9990,2 49132  70.0018  31.0214 0003362 287.1123 285.2099 14.98335739  3589,6950.175,96.107,574.377,569.703,0.0
49132.0,STARLINK-3090,PAYLOAD,2022-03-04 22:00:00,14.98331931,0.0003299,70.0023,30.1812,283.0963,286.6328,0.00034995,4.085e-05,0.0,0 STARLINK-3090,1 49132U 21082C   22063.91667824  .00004085  00000-0  34995-3 0  9998,2 49132  70.0023  30.1812 0003299 283.0963 286.6328 14.98331931  3574,6950.187,96.107,574.345,569.759,0.0
49132.0,STARLINK-3090,PAYLOAD,2022-03-05 06:00:00,14.9831422,0.000341,70.0023,29.3407,289.2271,277.9982,0.0027071,0.00032345,0.0,0 STARLINK-3090,1 49132U 21082C   22064.25001157  .00032345  00000-0  27071-2 0  9993,2 49132  70.0023  29.3407 0003410 289.2271 277.9982 14.98314220 26463,6950.2419999999975,96.108,574.477,569.737,0.0
49132.0,STARLINK-3090,PAYLOAD,2022-03-05 14:00:01,14.98348127,0.0003334,70.0021,28.5003,286.7368,277.968,-0.0028307,-0.00033723,0.0,0 STARLINK-3090,1 49132U 21082C   22064.58334491 -.00033723  00000-0 -28307-2 0  9995,2 49132  70.0021  28.5003 0003334 286.7368 277.9680 14.98348127  3551,6950.137,96.106,574.319,569.685,0.0
